OBJECT_NAME,OBJECT_ID,EPOCH,MEAN_MOTION,ECCENTRICITY,INCLINATION,RA_OF_ASC_NODE,ARG_OF_PERICENTER,MEAN_ANOMALY,EPHEMERIS_TYPE,CLASSIFICATION_TYPE,NORAD_CAT_ID,ELEMENT_SET_NO,REV_AT_EPOCH,BSTAR,MEAN_MOTION_DOT,MEAN_MOTION_DDOT
STARLINK-36278,2026-077Z,2026-07-04T15:00:11.307168,15.49255768,.00016757,97.2850,59.5983,100.1615,259.9825,0,U,68685,999,1327,.26825498E-2,.148946E-2,0
STARLINK-37213,2026-077AA,2026-07-04T21:24:00.796896,15.33507736,.0000845,97.2851,56.9483,122.9116,237.2208,0,U,68686,999,1312,.15492135E-2,.50373E-3,0
HJS-8A,2026-078A,2026-07-04T16:57:47.032704,13.24414822,.00015987,86.5008,276.5373,102.3642,257.7671,0,U,68687,999,1129,.53444225E-4,.38E-6,0
CYGNUS NG-24,2026-079A,2026-07-04T19:09:56.682144,15.48894567,.00067612,51.6303,212.9192,256.1012,103.9224,0,U,68689,999,68022,.18504104E-3,.9725E-4,0
JILIN GAOFEN OBJECT A,2026-080A,2026-07-04T01:28:04.639584,15.09112385,.00122821,97.6614,260.5556,15.1953,344.9642,0,U,68691,999,1220,.39809366E-3,.626E-4,0
JILIN GAOFEN OBJECT B,2026-080B,2026-07-04T15:20:32.032896,15.09032511,.00157223,97.6584,261.1512,350.7988,9.2950,0,U,68692,999,1229,.62260806E-3,.9821E-4,0
JILIN GAOFEN OBJECT C,2026-080C,2026-07-04T14:09:54.009216,15.09108820,.00128414,97.6596,261.0703,354.1079,5.9996,0,U,68693,999,1228,.54045966E-3,.8525E-4,0
JILIN GAOFEN OBJECT D,2026-080D,2026-07-04T23:17:47.332608,15.08890121,.00173879,97.6647,261.5495,1.3190,358.8081,0,U,68694,999,1232,.55497992E-3,.8717E-4,0
JILIN GAOFEN OBJECT E,2026-080E,2026-07-04T22:54:13.209120,15.09185355,.0013418,97.6634,261.5516,13.0027,347.1544,0,U,68695,999,1230,.58503606E-3,.9255E-4,0
JILIN GAOFEN OBJECT F,2026-080F,2026-07-04T22:52:27.638688,15.09149577,.00145123,97.6606,261.5232,18.5935,341.5820,0,U,68696,999,1230,.58302578E-3,.9217E-4,0
JILIN GAOFEN OBJECT G,2026-080G,2026-07-04T22:32:18.639168,15.09135375,.00144207,97.6653,261.5878,12.8323,347.3270,0,U,68697,999,1230,.5612833E-3,.8867E-4,0
JILIN GAOFEN OBJECT H,2026-080H,2026-07-01T19:40:54.106752,15.09020248,.00154058,97.6647,258.4665,23.9908,336.2035,0,U,68698,999,1183,.48995825E-3,.7709E-4,0
STARLINK-37358,2026-081A,2026-07-04T11:12:16.557984,15.34386614,.00012653,53.1578,210.8492,118.9025,241.2105,0,U,68699,999,1263,.10309727E-2,.34603E-3,0
STARLINK-37334,2026-081B,2026-07-04T18:58:14.876544,15.34423399,.00004845,53.1575,209.3127,42.2948,317.8092,0,U,68700,999,1268,.15777895E-2,.53352E-3,0
STARLINK-36955,2026-081C,2026-07-04T18:55:12.827424,15.34425615,.00015979,53.1578,209.2982,84.6999,275.4186,0,U,68701,999,1268,.10481965E-2,.35234E-3,0
STARLINK-36275,2026-081D,2026-07-04T18:52:09.615360,15.34435602,.00006156,53.1581,209.2963,98.1661,261.9411,0,U,68702,999,1268,.10442451E-2,.3511E-3,0
STARLINK-36271,2026-081E,2026-07-04T18:49:08.545152,15.34436858,.00009667,53.1574,209.2721,77.8163,282.2948,0,U,68703,999,1268,.19195621E-2,.6512E-3,0
STARLINK-37356,2026-081F,2026-07-04T18:46:06.959136,15.34455221,.00007318,53.1580,209.2595,74.8969,285.2115,0,U,68704,999,1268,.13165963E-2,.44449E-3,0
STARLINK-35369,2026-081G,2026-07-04T10:54:06.698880,15.34420803,.00007378,53.1586,210.7709,93.4398,266.6689,0,U,68705,999,1263,.15108666E-2,.51053E-3,0
STARLINK-37319,2026-081H,2026-07-04T18:34:01.528320,15.34431701,.00018518,53.1564,209.2247,75.6737,284.4471,0,U,68706,999,1268,.98935148E-3,.33233E-3,0
STARLINK-37112,2026-081J,2026-07-04T10:51:05.181120,15.34420277,.00013548,53.1576,210.7670,90.3808,269.7350,0,U,68707,999,1263,.13932353E-2,.47022E-3,0
STARLINK-37340,2026-081K,2026-07-04T18:37:01.197120,15.34435680,.00001175,53.1574,209.2207,105.9353,254.1662,0,U,68708,999,1268,.11794973E-2,.39732E-3,0
STARLINK-37303,2026-081L,2026-07-04T18:30:56.526048,15.34458127,.00003782,53.1581,209.1931,322.4517,37.6459,0,U,68709,999,1268,.11366719E-2,.38296E-3,0
STARLINK-36859,2026-081M,2026-07-04T18:27:55.911168,15.34445621,.00003095,53.1579,209.1807,118.6492,241.4541,0,U,68710,999,1268,.15841409E-2,.53608E-3,0
STARLINK-37320,2026-081N,2026-07-04T18:24:54.617184,15.34436607,.00021699,53.1572,209.1677,86.3671,273.7579,0,U,68711,999,1268,.14757232E-2,.49875E-3,0
STARLINK-37318,2026-081P,2026-07-04T18:21:51.998688,15.34448858,.00004117,53.1568,209.1556,314.6189,45.4780,0,U,68712,999,1268,.10117733E-2,.34017E-3,0
STARLINK-37305,2026-081Q,2026-07-04T18:18:52.450848,15.34439440,.00012531,53.1568,209.1343,81.5331,278.5813,0,U,68713,999,1268,.16232839E-2,.54941E-3,0
STARLINK-37225,2026-081R,2026-07-04T18:15:48.591648,15.34435946,.00000706,53.1552,209.1295,132.9071,227.1938,0,U,68714,999,1268,.12633678E-2,.42601E-3,0
STARLINK-37322,2026-081S,2026-07-04T18:12:46.457856,15.34449776,.0001095,53.1561,209.1054,303.0571,57.0327,0,U,68715,999,1268,.1459796E-2,.49349E-3,0
STARLINK-36337,2026-081T,2026-07-04T11:54:33.934176,15.34437025,.00007095,53.1571,210.3301,96.8141,263.2942,0,U,68716,999,1264,.11771169E-2,.39652E-3,0
STARLINK-36685,2026-081U,2026-07-04T11:51:32.611680,15.34435086,.00010281,53.1566,210.3008,86.4137,273.6984,0,U,68717,999,1264,.15800334E-2,.53449E-3,0
STARLINK-36684,2026-081V,2026-07-04T11:48:30.741408,15.34426094,.00008799,53.1582,210.2852,91.1827,268.9276,0,U,68718,999,1264,.1248488E-2,.42078E-3,0
STARLINK-36686,2026-081W,2026-07-04T08:34:51.830976,15.34411581,.00006983,53.1577,210.8677,55.3274,304.7795,0,U,68719,999,1262,.11289508E-2,.37974E-3,0
STARLINK-36681,2026-081X,2026-07-04T11:33:22.147776,15.34442915,.00016787,53.1580,210.2247,86.9113,273.2082,0,U,68720,999,1264,.20538205E-2,.69759E-3,0
STARLINK-36680,2026-081Y,2026-07-04T11:39:25.486560,15.34434184,.00007267,53.1571,210.2441,85.1855,274.9230,0,U,68721,999,1264,.17667532E-2,.59859E-3,0
STARLINK-37271,2026-081Z,2026-07-04T11:36:24.712704,15.34431922,.00004483,53.1571,210.2301,66.0844,294.0206,0,U,68722,999,1264,.1393239E-2,.4704E-3,0
STARLINK-37273,2026-081AA,2026-07-04T11:45:29.034432,15.34436751,.00006837,53.1582,210.2801,61.2815,298.8256,0,U,68723,999,1264,.18194135E-2,.61674E-3,0
STARLINK-37274,2026-081AB,2026-07-04T11:30:20.179872,15.34424500,.00011534,53.1574,210.2037,86.4369,273.6766,0,U,68724,999,1264,.1324745E-2,.44684E-3,0
STARLINK-37275,2026-081AC,2026-07-04T19:13:16.733568,15.34393492,.00005267,53.1591,208.6736,70.9431,289.1629,0,U,68725,999,1269,.12749281E-2,.42937E-3,0
STARLINK-37272,2026-081AD,2026-07-04T02:04:32.185632,15.34394593,.0000967,53.1581,212.0175,73.1104,287.0005,0,U,68726,999,1258,.91817147E-3,.30768E-3,0
STARLINK-37270,2026-081AE,2026-07-04T08:13:39.492480,15.34419123,.00011614,53.1583,210.7871,92.9439,267.1696,0,U,68727,999,1262,.9638458E-3,.32349E-3,0
STARLINK-37242,2026-082A,2026-07-03T20:37:05.433024,15.33445442,.00007025,97.2875,48.1243,75.9150,284.2170,0,U,68728,999,1225,.7537484E-3,.24337E-3,0
STARLINK-37264,2026-082B,2026-07-04T20:34:01.216992,15.33494829,.00022952,97.2850,49.0618,100.7277,259.4225,0,U,68729,999,1240,.10506274E-2,.34051E-3,0
STARLINK-37230,2026-082C,2026-07-04T21:24:53.766144,15.33484205,.00025257,97.2850,49.1690,99.6310,260.5219,0,U,68730,999,1241,.10857475E-2,.35186E-3,0
STARLINK-37202,2026-082D,2026-07-04T20:37:54.916032,15.33488467,.00030161,97.2847,49.0591,93.2968,266.8620,0,U,68731,999,1240,.12222403E-2,.39649E-3,0
STARLINK-37167,2026-082E,2026-07-04T20:41:51.080064,15.33500713,.00030385,97.2859,49.0556,84.0947,276.0642,0,U,68732,999,1240,.11696653E-2,.37947E-3,0
STARLINK-37278,2026-082F,2026-07-04T20:45:44.743680,15.33466980,.00009119,97.2833,49.2033,98.4671,261.6675,0,U,68733,999,1241,.9592708E-3,.31043E-3,0
STARLINK-37349,2026-082G,2026-07-04T13:15:30.683808,15.33500754,.00019006,97.2856,48.8646,81.1904,278.9554,0,U,68734,999,1236,.17374698E-2,.56539E-3,0
STARLINK-37339,2026-082H,2026-07-04T21:01:24.297024,15.33481624,.0002266,97.2831,49.1880,96.7325,263.4175,0,U,68735,999,1241,.11604592E-2,.37621E-3,0
STARLINK-37327,2026-082J,2026-07-04T14:10:18.665184,15.33440144,.00027026,97.2872,48.8125,89.0076,271.1476,0,U,68736,999,1236,.13339722E-2,.43234E-3,0
STARLINK-37348,2026-082K,2026-07-04T01:26:49.011072,15.33469472,.0000973,97.2861,48.3096,82.4562,277.6792,0,U,68737,999,1228,.92720823E-3,.30001E-3,0
STARLINK-37331,2026-082L,2026-07-04T01:30:43.801344,15.33469913,.0000734,97.2868,48.3049,85.9149,274.2178,0,U,68738,999,1228,.93564729E-3,.30276E-3,0
STARLINK-37338,2026-082M,2026-07-04T01:22:54.294240,15.33455063,.00009743,97.2860,48.3117,92.9008,267.2346,0,U,68739,999,1228,.74445791E-3,.24043E-3,0
STARLINK-37314,2026-082N,2026-07-04T21:32:43.576512,15.33479298,.00027632,97.2830,49.1574,90.9230,269.2329,0,U,68740,999,1241,.11805235E-2,.38275E-3,0
STARLINK-36314,2026-082P,2026-07-04T01:42:28.536768,15.33497458,.00009692,97.2885,48.2951,97.7752,262.3601,0,U,68741,999,1228,.10240172E-2,.33184E-3,0
STARLINK-37351,2026-082Q,2026-07-04T13:46:48.648288,15.33489755,.00023578,97.2844,48.8338,99.8891,260.2618,0,U,68742,999,1236,.16974954E-2,.55209E-3,0
STARLINK-37354,2026-082R,2026-07-04T20:53:34.469376,15.33476593,.00017888,97.2838,49.1968,93.7664,266.3783,0,U,68743,999,1241,.96576459E-3,.31264E-3,0
STARLINK-37344,2026-082S,2026-07-04T21:20:58.767648,15.33479189,.00010781,97.2865,49.1706,97.7923,262.3442,0,U,68744,999,1241,.12826798E-2,.41608E-3,0
STARLINK-37267,2026-082T,2026-07-04T20:49:39.521856,15.33483446,.00025243,97.2849,49.1992,94.6929,265.4602,0,U,68745,999,1241,.11115949E-2,.36029E-3,0
STARLINK-37347,2026-082U,2026-07-04T21:28:48.596160,15.33495294,.00029628,97.2836,49.1611,96.4306,263.7274,0,U,68746,999,1241,.10630451E-2,.34459E-3,0
STARLINK-37268,2026-082V,2026-07-04T20:57:29.318400,15.33458015,.00010044,97.2821,49.1889,93.8275,266.3083,0,U,68747,999,1241,.98775354E-3,.31961E-3,0
STARLINK-37325,2026-082W,2026-07-04T14:06:23.858496,15.33460915,.00013351,97.2874,48.8160,87.6859,272.4536,0,U,68748,999,1236,.14255222E-2,.46252E-3,0
STARLINK-37324,2026-082X,2026-07-04T21:09:14.046048,15.33488545,.00014914,97.2851,49.1839,94.4244,265.7170,0,U,68749,999,1241,.1504113E-2,.48866E-3,0
